FLOCK 4G-30             
1 62679U 25009BY  26068.70871344  .00013147  00000+0  49475-3 0  9999
2 62679  97.3969 150.6012 0003795 342.4152  17.6955 15.27244548121341
STARLINK-32937          
1 63148U 25043S   26068.23576516  .00037573  00000+0  13678-2 0  9994
2 63148  43.0038  18.7338 0001382 274.4131  85.6562 15.27583177 57299
